#aV2006 11  2  0  0   .00000000      96 DD+AD WGS84 FIT  NGA
## 1399 345600.00000000   900.00000000 54041  .0000000000000
+   30     1  2  3  4  5  6  7  8  9 10 11 13 14 15 16 17 18
+         19 20 21 22 23 24 25 26 27 28 29 30 31  0  0  0  0
+          0  0  0  0  0  0  0  0  0  0  0  0  0  0  0  0  0
+          0  0  0  0  0  0  0  0  0  0  0  0  0  0  0  0  0
+          0  0  0  0  0  0  0  0  0  0  0  0  0  0  0  0  0
++         0  0  0  0  0  0  0  0  0  0  0  0  0  0  0  0  0
++         0  0  0  0  0  0  0  0  0  0  0  0  0  0  0  0  0
++         0  0  0  0  0  0  0  0  0  0  0  0  0  0  0  0  0
++         0  0  0  0  0  0  0  0  0  0  0  0  0  0  0  0  0
++         0  0  0  0  0  0  0  0  0  0  0  0  0  0  0  0  0
%c cc cc ccc ccc cccc cccc cccc cccc ccccc ccccc ccccc ccccc
%c cc cc ccc ccc cccc cccc cccc cccc ccccc ccccc ccccc ccccc
%f  0.0000000  0.000000000  0.00000000000  0.000000000000000
%f  0.0000000  0.000000000  0.00000000000  0.000000000000000
%i    0    0    0    0      0      0      0      0         0
%i    0    0    0    0      0      0      0      0         0
/*      NGA, ST. LOUIS,MO.                                  
/*   EPHEMERIS COMPUTED FROM  3 DAYS OF DATA                
/* CCCCCCCCCCCCCCCCCCCCCCCCCCCCCCCCCCCCCCCCCCCCCCCCCCCCCCCCC
/* CCCCCCCCCCCCCCCCCCCCCCCCCCCCCCCCCCCCCCCCCCCCCCCCCCCCCCCCC
*  2006 11  2 17 45   .00000000                                                 
P  1  15761.109628   3637.689176 -20879.374481     86.418805                    
V  1   8147.398815  25630.122467  10449.527287       .024161                    
P  2 -20189.195965   7442.301213 -15654.270366     50.822249                    
V  2  10334.407286 -16785.903183 -21872.728994       .036771                    
P  3  16429.063649  -1892.829860  20641.552392    361.828756                    
V  3  11447.290236  24163.151683  -6508.895479       .352462                    
P  4 -15291.631727  -5315.582103 -21153.368667    331.747643                    
V  4  16601.260208 -20971.000523  -6389.962761       .045570                    
P  5 -11066.058627  13910.533428 -19919.458012    363.817086                    
V  5 -24780.866844  -2994.058404  11966.498363      -.021844                    
P  6   6063.634599  25083.064425  -5968.779239    563.621283                    
V  6  -6430.128535  -5779.681281 -29936.053574      -.115229                    
P  7  17452.943962  15934.975400  12360.147117    503.179346                    
V  7   3760.150209  15068.979901 -25556.229000      -.069978                    
P  8  -7554.325391 -13445.293646  21427.066615    -85.006925                    
V  8  18597.021685 -20350.371421  -6594.219990      -.011914                    
P  9 -15374.075032  21491.840506   -494.268734     42.942689                    
V  9  -2357.564435  -1802.195943  31958.412850       .016919                    
P 10 -25163.910088   1671.558003   8728.966707     92.175791                    
V 10 -10597.610935  -3925.212037 -29167.267244       .006945                    
P 11  12029.485561 -23476.917194  -1402.175344    358.073070                    
V 11   5253.617186    999.938974  30349.961168       .017967                    
P 13  -5951.713282 -25505.717291  -4634.971098    109.039999                    
V 13   3532.723874   4835.943310 -31726.060914       .035398                    
P 14  15023.895981  18736.021594 -11349.062506     -2.021210                    
V 14   3530.060273  14124.165265  27729.232937       .009129                    
P 15   8894.675899  12680.962992  21402.978200     45.726031                    
V 15 -19150.526504  19830.568140  -4194.213791       .499436                    
P 16  26058.372631    318.232415   5521.087562     87.963126                    
V 16   6388.749845   3640.993837 -30680.464341       .036472                    
P 17 -15486.213635 -18679.880475 -10936.987123     90.947697                    
V 17  -2814.581989 -13758.295882  27391.304656      -.011546                    
P 18   9668.933977  15771.441656  19303.486070   -251.978047                    
V 18 -23930.833779  -3438.645419  14576.546270      -.005637                    
P 19  11210.973608 -12508.834303  20655.433006     30.304666                    
V 19   8901.189312  24478.731899  10121.477929       .037708                    
P 20   7653.651526 -14105.214554 -21245.796354    -21.896598                    
V 20  26455.239133   4337.542053   6708.852992       .000746                    
P 21   2115.557066  18547.345354  18772.315999     59.770917                    
V 21 -17010.982960  16912.303554 -15409.170650       .015589                    
P 22  21079.591479  12133.850405  10862.749459    146.534754                    
V 22 -13802.206707   -146.042981  27334.950911       .026615                    
P 23   2272.081933 -21906.768493 -14788.930233    139.701621                    
V 23   8683.016997  16666.932900 -23676.260146       .006518                    
P 24 -18365.996074    517.323370 -19100.726020     49.157442                    
V 24  15330.817054 -19245.320539 -14809.193186       .030810                    
P 25  17711.839982  -2189.309797 -19320.436441    398.349852                    
V 25 -12771.301626  21954.901064 -13760.543309       .079453                    
P 26 -10682.468714  11120.993527  21115.680892   -319.229174                    
V 26 -10157.289879 -25904.585272   8895.466236      -.159398                    
P 27   -395.594308 -20520.191366  17308.664534     75.998899                    
V 27  13435.995237 -16126.316098 -19811.756924       .019479                    
P 28 -18439.261999 -13311.566106  14305.516447     15.178831                    
V 28  17575.976686   1162.367397  23900.232573      -.008589                    
P 29 -12964.498875   7113.179375  22273.700411    153.604377                    
V 29 -10494.050935 -25607.132566   2393.944113       .490716                    
P 30   2890.008313  15896.583561 -21397.396587     15.181458                    
V 30 -26399.118793  -2491.229998  -5382.772587       .012227                    
P 31  17211.134148    853.562995 -20030.084032    -55.607564                    
V 31 -15150.835076  20977.347274 -11972.297997       .114026                    
EOF
